ONEWEB-0551             
1 56053U 23043H   23160.25001157  .00000015  00000+0  00000+0 0  9998
2 56053  87.7707 119.4483 0016094  35.8104 203.8974 13.76024112 12045
ONEWEB-0552             
1 56054U 23043J   23159.63121867  .00002384  00000+0  25405-3 0  9991
2 56054  86.9951 115.1043 0000386  37.4873 322.6380 14.88482785 11229
ONEWEB-0553             
1 56055U 23043K   23159.59903565  .00001713  00000+0  18158-3 0  9992
2 56055  86.9019 114.5903 0004616  89.7233 270.4522 14.88499075 11221
ONEWEB-0554             
1 56056U 23043L   23159.40623058  .00003298  00000+0  35242-3 0  9992
2 56056  86.8940 114.6361 0000985  68.4942 291.6390 14.88492445 12109
ONEWEB-0555             
1 56057U 23043M   23159.90449081  .00003262  00000+0  34864-3 0  9990
2 56057  86.8977 114.4516 0002376 120.6638 239.4823 14.88477127 12177
ONEWEB-0557             
1 56058U 23043N   23159.59342437  .00002961  00000+0  31605-3 0  9998
2 56058  86.8941 114.5515 0002074  93.9182 266.2281 14.88500301 11222
ONEWEB-0558             
1 56059U 23043P   23159.36067921  .00003387  00000+0  36212-3 0  9998
2 56059  86.9897 115.2010 0004468  50.0196 310.1422 14.88471284 11199
ONEWEB-0559             
1 56060U 23043Q   23159.61155758  .00003304  00000+0  35328-3 0  9990
2 56060  86.9942 115.1032 0005157  69.4268 290.7512 14.88462642 11220
ONEWEB-0566             
1 56061U 23043R   23159.61008474  .00003100  00000+0  33100-3 0  9993
2 56061  86.9999 115.1259 0004978  67.0413 293.1338 14.88488073 11229
ONEWEB-0568             
1 56062U 23043S   23159.38725212  .00003190  00000+0  34056-3 0  9994
2 56062  86.9059 114.6867 0002306 112.0160 248.1312 14.88516138 11180
ONEWEB-0574             
1 56063U 23043T   23159.91696434  .00003264  00000+0  34888-3 0  9992
2 56063  86.9896 114.9412 0004318  68.6990 291.4697 14.88477864 12181
ONEWEB-0575             
1 56064U 23043U   23159.59456860  .00002949  00000+0  31486-3 0  9994
2 56064  86.9053 114.6162 0002849  88.6090 271.5463 14.88487759 11213
ONEWEB-0576             
1 56065U 23043V   23159.90871939  .00003315  00000+0  35418-3 0  9995
2 56065  86.9000 114.4758 0003482 107.3708 252.7899 14.88492754 12175
ONEWEB-0577             
1 56066U 23043W   23159.91026978  .00003230  00000+0  34519-3 0  9999
2 56066  86.9058 114.5697 0001349 109.7594 250.3778 14.88475513 12186
ONEWEB-0578             
1 56067U 23043X   23159.61105587  .00003072  00000+0  32800-3 0  9996
2 56067  86.9931 115.0914 0005462  64.4055 295.7735 14.88486358 11223
ONEWEB-0579             
1 56068U 23043Y   23159.90328690  .00009912  00000+0  10648-2 0  9995
2 56068  86.9892 114.9651 0005381  67.6458 292.5338 14.88460916 12180
ONEWEB-0581             
1 56069U 23043Z   23159.91664222  .00003263  00000+0  34872-3 0  9990
2 56069  86.9024 114.4693 0003932 105.3501 254.8160 14.88475596 12171
ONEWEB-0609             
1 56070U 23043AA  23159.93066983  .00000110  00000+0  66049-4 0  9994
2 56070  87.7601 119.7326 0010735  21.5468 338.6159 13.97773048 11983
ONEWEB-0613             
1 56071U 23043AB  23159.59769880  .00000177  00000+0  10821-3 0  9992
2 56071  87.7481 119.9619 0013291  30.5479 329.6471 14.00476709 11008
ONEWEB-0630             
1 56072U 23043AC  23159.92536031  .00000112  00000+0  68847-4 0  9991
2 56072  87.7532 119.7218 0011895  11.6034 348.5414 13.97135786 11979
ONEWEB-0632             
1 56073U 23043AD  23159.94978334  .00000176  00000+0  11472-3 0  9991
2 56073  87.7584 119.7111 0007788  17.3605 342.7836 13.96906540 11980
ONEWEB-0633             
1 56074U 23043AE  23160.25001157  .00000016  00000+0  00000+0 0  9992
2 56074  87.7685 119.5017 0016094  27.2041 329.5522 13.93178606 12022
ONEWEB-0634             
1 56075U 23043AF  23159.43199949  .00000080  00000+0  45566-4 0  9990
2 56075  87.7187 119.9137 0010548  15.5864 344.5635 13.97116269 10984
ONEWEB-0635             
1 56076U 23043AG  23159.91667824 -.00013050  00000+0 -96023-2 0  9991
2 56076  87.7661 119.7091 0016788  22.6662 340.4212 13.95716358  1301
ONEWEB-0636             
1 56077U 23043AH  23159.41532435  .00000132  00000+0  82725-4 0  9997
2 56077  87.7441 119.9958 0010302   9.9964 350.1416 13.97308819 10980
ONEWEB-0637             
1 56078U 23043AJ  23159.91667824 -.00009844  00000+0 -71401-2 0  9992
2 56078  87.7648 119.7564 0011627  33.8527  32.1204 13.96558472  1302
ONEWEB-0647             
1 56079U 23043AK  23159.92980318  .00000110  00000+0  67248-4 0  9991
2 56079  87.7589 119.7722 0012418   6.2370 353.8959 13.97317627 11062
ONEWEB-0651             
1 56080U 23043AL  23159.96310148  .00000165  00000+0  10657-3 0  9996
2 56080  87.7614 119.7693 0017560  16.7798 343.3955 13.97204790 11069
ONEWEB-0718             
1 56081U 23043AM  23159.96047342  .00000129  00000+0  80879-4 0  9994
2 56081  87.7603 119.7090 0015235  12.1936 347.9606 13.96865426 11982
GSLV R/B                
1 56082U 23043AN  23159.37935095  .00023266  00000+0  56354-3 0  9998
2 56082  87.4150 116.3781 0027799  98.0654 262.3758 15.40552297 11422
ONEWEB-0561             
1 56710U 23068A   23160.25001157 -.01125374  00000+0 -30542+0 0  9998
2 56710  86.9288 132.4691 0012940 146.6962 288.7114 14.50732605  3735
ONEWEB-0668             
1 56711U 23068B   23159.95245810  .00002004  00000+0  23885-3 0  9997
2 56711  86.6788 132.2567 0016309 148.9115 211.3077 14.83689562  3713
ONEWEB-0676             
1 56712U 23068C   23159.95481381  .00002023  00000+0  24227-3 0  9995
2 56712  86.6750 132.2474 0016008 148.8406 211.3771 14.83507763  3711
ONEWEB-0677             
1 56713U 23068D   23160.25001157 -.00977587  00000+0 -25737+0 0  9991
2 56713  86.8817 132.4219 0011328 140.9867 309.9373 14.52245063  3733
ONEWEB-0678             
1 56714U 23068E   23159.62750863  .00002118  00000+0  25888-3 0  9994
2 56714  86.6771 132.3973 0012281 147.7123 212.4855 14.82726923  2976
ONEWEB-0679             
1 56715U 23068F   23159.41228965  .00002007  00000+0  23898-3 0  9991
2 56715  86.6787 132.4810 0016480 150.3078 209.9084 14.83734976  2949
ONEWEB-0680             
1 56716U 23068G   23159.95524870  .00001964  00000+0  23535-3 0  9994
2 56716  86.6752 132.2486 0015467 149.9648 210.2466 14.83473646  3719
ONEWEB-0681             
1 56717U 23068H   23159.96131686  .00001982  00000+0  24034-3 0  9990
2 56717  86.6771 132.2573 0013100 150.5692 209.6272 14.83013180  3717
ONEWEB-0682             
1 56718U 23068J   23159.96194319  .00002169  00000+0  26376-3 0  9992
2 56718  86.6773 132.2593 0013013 150.2463 209.9503 14.82959141  3713
ONEWEB-0683             
1 56719U 23068K   23159.96296873  .00002147  00000+0  26152-3 0  9999
2 56719  86.6770 132.2596 0012764 149.2238 210.9736 14.82881708  3717
ONEWEB-0684             
1 56720U 23068L   23159.96436651  .00001952  00000+0  23807-3 0  9998
2 56720  86.6772 132.2565 0012370 147.2804 212.9188 14.82775242  3715
ONEWEB-0686             
1 56721U 23068M   23159.95322256  .00002027  00000+0  24211-3 0  9997
2 56721  86.6749 132.2462 0016128 149.1394 211.0781 14.83629684  3714
ONEWEB-0694             
1 56722U 23068N   23159.95385227  .00002048  00000+0  24492-3 0  9999
2 56722  86.6791 132.2584 0015895 148.7423 211.4749 14.83579963  3717
ONEWEB-0696             
1 56723U 23068P   23159.96395777  .00001964  00000+0  23942-3 0  9997
2 56723  86.6768 132.2602 0012481 147.9250 212.2735 14.82804267  3711
ONEWEB-0703             
1 56724U 23068Q   23159.96346716  .00001455  00000+0  17630-3 0  9999
2 56724  86.6774 132.2561 0012464 148.6696 211.5272 14.82842635  3715
ONEWEB-0721             
1 56725U 23068R   23159.62817107  .00001774  00000+0  21658-3 0  9999
2 56725  86.6770 132.3976 0012081 147.2993 212.8980 14.82677152  2970
